{
  "type": "FeatureCollection",
  "features": [
    {
      "type": "Feature",
      "properties": {
        "norad_id": 39766,
        "name": "ALOS-2",
        "group": "resource",
        "lat": -42.17621861112795,
        "lon": -107.75138686499884,
        "alt_km": 638.2178281381111,
        "timestamp": "2025-12-10T14:53:36.779652+00:00",
        "meta_object_name": "ALOS-2",
        "meta_object_id": "2014-029A",
        "meta_epoch": "2025-12-10T05:46:28.852608",
        "meta_mean_motion": 14.79467586,
        "meta_eccentricity": 0.00014906,
        "meta_inclination": 97.9226,
        "meta_ra_of_asc_node": 79.1222,
        "meta_arg_of_pericenter": 99.3243,
        "meta_mean_anomaly": 260.8137,
        "meta_ephemeris_type": 0,
        "meta_classification_type": "U",
        "meta_norad_cat_id": 39766,
        "meta_element_set_no": 999,
        "meta_rev_at_epoch": 62364,
        "meta_bstar": 0.00054156257,
        "meta_mean_motion_dot": 3.995e-05,
        "meta_mean_motion_ddot": 0,
        "tle_line1": "1 39766U 14029A   25344.24061172  .00003995  00000+0  54156-3 0  9997",
        "tle_line2": "2 39766  97.9226  79.1222 0001490  99.3243 260.8137 14.79467586623640"
      },
      "geometry": {
        "type": "Point",
        "coordinates": [
          -107.75138686499884,
          -42.17621861112795
        ]
      }
    },
    {
      "type": "Feature",
      "properties": {
        "norad_id": 40010,
        "name": "KAZEOSAT 2",
        "group": "resource",
        "lat": 82.40980969897451,
        "lon": 104.56809539178391,
        "alt_km": 608.6410215596843,
        "timestamp": "2025-12-10T14:53:36.779661+00:00",
        "meta_object_name": "KAZEOSAT 2",
        "meta_object_id": "2014-033A",
        "meta_epoch": "2025-12-10T06:24:27.562752",
        "meta_mean_motion": 14.85161322,
        "meta_eccentricity": 0.00075204,
        "meta_inclination": 97.5503,
        "meta_ra_of_asc_node": 188.7088,
        "meta_arg_of_pericenter": 215.6821,
        "meta_mean_anomaly": 144.3893,
        "meta_ephemeris_type": 0,
        "meta_classification_type": "U",
        "meta_norad_cat_id": 40010,
        "meta_element_set_no": 999,
        "meta_rev_at_epoch": 62091,
        "meta_bstar": 0.00015744825,
        "meta_mean_motion_dot": 1.298e-05,
        "meta_mean_motion_ddot": 0,
        "tle_line1": "1 40010U 14033A   25344.26698568  .00001298  00000+0  15745-3 0  9998",
        "tle_line2": "2 40010  97.5503 188.7088 0007520 215.6821 144.3893 14.85161322620918"
      },
      "geometry": {
        "type": "Point",
        "coordinates": [
          104.56809539178391,
          82.40980969897451
        ]
      }
    },
    {
      "type": "Feature",
      "properties": {
        "norad_id": 40011,
        "name": "HODOYOSHI-4",
        "group": "resource",
        "lat": 20.398363017099648,
        "lon": -3.56740143001831,
        "alt_km": 595.275886626735,
        "timestamp": "2025-12-10T14:53:36.779671+00:00",
        "meta_object_name": "HODOYOSHI-4",
        "meta_object_id": "2014-033B",
        "meta_epoch": "2025-12-10T06:06:20.778624",
        "meta_mean_motion": 14.87462433,
        "meta_eccentricity": 0.00230413,
        "meta_inclination": 97.5414,
        "meta_ra_of_asc_node": 173.2609,
        "meta_arg_of_pericenter": 209.2276,
        "meta_mean_anomaly": 150.7653,
        "meta_ephemeris_type": 0,
        "meta_classification_type": "U",
        "meta_norad_cat_id": 40011,
        "meta_element_set_no": 999,
        "meta_rev_at_epoch": 62071,
        "meta_bstar": 9.9380017e-05,
        "meta_mean_motion_dot": 8.52e-06,
        "meta_mean_motion_ddot": 0,
        "tle_line1": "1 40011U 14033B   25344.25440716  .00000852  00000+0  99380-4 0  9991",
        "tle_line2": "2 40011  97.5414 173.2609 0023041 209.2276 150.7653 14.87462433620719"
      },
      "geometry": {
        "type": "Point",
        "coordinates": [
          -3.56740143001831,
          20.398363017099648
        ]
      }
    },
    {
      "type": "Feature",
      "properties": {
        "norad_id": 40013,
        "name": "DEIMOS-2",
        "group": "resource",
        "lat": -80.95837423216686,
        "lon": -82.3947472044127,
        "alt_km": 596.774542355196,
        "timestamp": "2025-12-10T14:53:36.779680+00:00",
        "meta_object_name": "DEIMOS-2",
        "meta_object_id": "2014-033D",
        "meta_epoch": "2025-12-10T05:37:23.013696",
        "meta_mean_motion": 14.92954088,
        "meta_eccentricity": 9.989e-05,
        "meta_inclination": 97.6062,
        "meta_ra_of_asc_node": 220.1176,
        "meta_arg_of_pericenter": 87.0173,
        "meta_mean_anomaly": 273.1161,
        "meta_ephemeris_type": 0,
        "meta_classification_type": "U",
        "meta_norad_cat_id": 40013,
        "meta_element_set_no": 999,
        "meta_rev_at_epoch": 60952,
        "meta_bstar": 0.00017590342,
        "meta_mean_motion_dot": 1.772e-05,
        "meta_mean_motion_ddot": 0,
        "tle_line1": "1 40013U 14033D   25344.23429414  .00001772  00000+0  17590-3 0  9997",
        "tle_line2": "2 40013  97.6062 220.1176 0000998  87.0173 273.1161 14.92954088609524"
      },
      "geometry": {
        "type": "Point",
        "coordinates": [
          -82.3947472044127,
          -80.95837423216686
        ]
      }
    },
    {
      "type": "Feature",
      "properties": {
        "norad_id": 40015,
        "name": "HODOYOSHI-3",
        "group": "resource",
        "lat": 73.11803408082318,
        "lon": -3.2761632864339747,
        "alt_km": 626.5248080109905,
        "timestamp": "2025-12-10T14:53:36.779689+00:00",
        "meta_object_name": "HODOYOSHI-3",
        "meta_object_id": "2014-033F",
        "meta_epoch": "2025-12-10T06:19:57.684576",
        "meta_mean_motion": 14.84793653,
        "meta_eccentricity": 0.00318355,
        "meta_inclination": 97.62,
        "meta_ra_of_asc_node": 150.2067,
        "meta_arg_of_pericenter": 256.4345,
        "meta_mean_anomaly": 103.3323,
        "meta_ephemeris_type": 0,
        "meta_classification_type": "U",
        "meta_norad_cat_id": 40015,
        "meta_element_set_no": 999,
        "meta_rev_at_epoch": 61958,
        "meta_bstar": 0.00032856209,
        "meta_mean_motion_dot": 2.761e-05,
        "meta_mean_motion_ddot": 0,
        "tle_line1": "1 40015U 14033F   25344.26386209  .00002761  00000+0  32856-3 0  9997",
        "tle_line2": "2 40015  97.6200 150.2067 0031835 256.4345 103.3323 14.84793653619580"
      },
      "geometry": {
        "type": "Point",
        "coordinates": [
          -3.2761632864339747,
          73.11803408082318
        ]
      }
    },
    {
      "type": "Feature",
      "properties": {
        "norad_id": 40053,
        "name": "SPOT 7",
        "group": "resource",
        "lat": 11.035254120213928,
        "lon": 45.15522107688134,
        "alt_km": 692.0148846060429,
        "timestamp": "2025-12-10T14:53:36.779699+00:00",
        "meta_object_name": "SPOT 7",
        "meta_object_id": "2014-034A",
        "meta_epoch": "2025-12-10T06:37:21.699840",
        "meta_mean_motion": 14.60728575,
        "meta_eccentricity": 0.0001567,
        "meta_inclination": 98.0905,
        "meta_ra_of_asc_node": 46.4082,
        "meta_arg_of_pericenter": 89.3482,
        "meta_mean_anomaly": 270.7899,
        "meta_ephemeris_type": 0,
        "meta_classification_type": "U",
        "meta_norad_cat_id": 40053,
        "meta_element_set_no": 999,
        "meta_rev_at_epoch": 60955,
        "meta_bstar": 0.00016733994,
        "meta_mean_motion_dot": 7.7e-06,
        "meta_mean_motion_ddot": 0,
        "tle_line1": "1 40053U 14034A   25344.27594560  .00000770  00000+0  16734-3 0  9997",
        "tle_line2": "2 40053  98.0905  46.4082 0001567  89.3482 270.7899 14.60728575609554"
      },
      "geometry": {
        "type": "Point",
        "coordinates": [
          45.15522107688134,
          11.035254120213928
        ]
      }
    },
    {
      "type": "Feature",
      "properties": {
        "norad_id": 40072,
        "name": "SKYSAT-B",
        "group": "resource",
        "lat": 74.06124620301641,
        "lon": 139.20994857601139,
        "alt_km": 596.7293181813247,
        "timestamp": "2025-12-10T14:53:36.779708+00:00",
        "meta_object_name": "SKYSAT-B",
        "meta_object_id": "2014-037D",
        "meta_epoch": "2025-12-10T06:21:22.463712",
        "meta_mean_motion": 14.87313046,
        "meta_eccentricity": 0.00059569,
        "meta_inclination": 98.3609,
        "meta_ra_of_asc_node": 287.8401,
        "meta_arg_of_pericenter": 157.6415,
        "meta_mean_anomaly": 202.506,
        "meta_ephemeris_type": 0,
        "meta_classification_type": "U",
        "meta_norad_cat_id": 40072,
        "meta_element_set_no": 999,
        "meta_rev_at_epoch": 61787,
        "meta_bstar": 0.00035871286,
        "meta_mean_motion_dot": 3.178e-05,
        "meta_mean_motion_ddot": 0,
        "tle_line1": "1 40072U 14037D   25344.26484333  .00003178  00000+0  35871-3 0  9994",
        "tle_line2": "2 40072  98.3609 287.8401 0005956 157.6415 202.5060 14.87313046617875"
      },
      "geometry": {
        "type": "Point",
        "coordinates": [
          139.20994857601139,
          74.06124620301641
        ]
      }
    }
  ]
}